{
  "type": "FeatureCollection",
  "features": [
    {
      "type": "Feature",
      "properties": {
        "norad_id": 35052,
        "name": "IRIDIUM 33 DEB",
        "group": "iridium-33-debris",
        "lat": 75.12651753962551,
        "lon": -174.7578370499193,
        "alt_km": 747.826078208037,
        "timestamp": "2025-12-15T15:53:20.233859+00:00",
        "meta_object_name": "IRIDIUM 33 DEB",
        "meta_object_id": "1997-051NY",
        "meta_epoch": "2025-12-14T12:41:41.757792",
        "meta_mean_motion": 14.38494384,
        "meta_eccentricity": 0.0013625,
        "meta_inclination": 86.3309,
        "meta_ra_of_asc_node": 19.7092,
        "meta_arg_of_pericenter": 80.11,
        "meta_mean_anomaly": 280.1635,
        "meta_ephemeris_type": 0,
        "meta_classification_type": "U",
        "meta_norad_cat_id": 35052,
        "meta_element_set_no": 999,
        "meta_rev_at_epoch": 87301,
        "meta_bstar": 0.00021343381,
        "meta_mean_motion_dot": 6.72e-06,
        "meta_mean_motion_ddot": 0,
        "tle_line1": "1 35052U 97051NY  25348.52895553  .00000672  00000+0  21343-3 0  9991",
        "tle_line2": "2 35052  86.3309  19.7092 0013625  80.1100 280.1635 14.38494384873013"
      },
      "geometry": {
        "type": "Point",
        "coordinates": [
          -174.7578370499193,
          75.12651753962551
        ]
      }
    },
    {
      "type": "Feature",
      "properties": {
        "norad_id": 35080,
        "name": "IRIDIUM 33 DEB",
        "group": "iridium-33-debris",
        "lat": 60.499803975805726,
        "lon": 57.7138073801437,
        "alt_km": 616.3730786596607,
        "timestamp": "2025-12-15T15:53:20.233872+00:00",
        "meta_object_name": "IRIDIUM 33 DEB",
        "meta_object_id": "1997-051PF",
        "meta_epoch": "2025-12-14T04:04:06.646368",
        "meta_mean_motion": 14.86306117,
        "meta_eccentricity": 0.00599054,
        "meta_inclination": 86.2063,
        "meta_ra_of_asc_node": 51.6925,
        "meta_arg_of_pericenter": 174.8299,
        "meta_mean_anomaly": 185.3558,
        "meta_ephemeris_type": 0,
        "meta_classification_type": "U",
        "meta_norad_cat_id": 35080,
        "meta_element_set_no": 999,
        "meta_rev_at_epoch": 69709,
        "meta_bstar": 0.0068845127,
        "meta_mean_motion_dot": 0.00063095,
        "meta_mean_motion_ddot": 0,
        "tle_line1": "1 35080U 97051PF  25348.16952137  .00063095  00000+0  68845-2 0  9999",
        "tle_line2": "2 35080  86.2063  51.6925 0059905 174.8299 185.3558 14.86306117697092"
      },
      "geometry": {
        "type": "Point",
        "coordinates": [
          57.7138073801437,
          60.499803975805726
        ]
      }
    },
    {
      "type": "Feature",
      "properties": {
        "norad_id": 35297,
        "name": "IRIDIUM 33 DEB",
        "group": "iridium-33-debris",
        "lat": 80.4627207781201,
        "lon": 83.60554012479888,
        "alt_km": 726.1111840516633,
        "timestamp": "2025-12-15T15:53:20.233885+00:00",
        "meta_object_name": "IRIDIUM 33 DEB",
        "meta_object_id": "1997-051PM",
        "meta_epoch": "2025-12-14T12:55:35.277600",
        "meta_mean_motion": 14.45168041,
        "meta_eccentricity": 0.00176283,
        "meta_inclination": 86.3867,
        "meta_ra_of_asc_node": 61.9926,
        "meta_arg_of_pericenter": 135.2135,
        "meta_mean_anomaly": 225.0494,
        "meta_ephemeris_type": 0,
        "meta_classification_type": "U",
        "meta_norad_cat_id": 35297,
        "meta_element_set_no": 999,
        "meta_rev_at_epoch": 70452,
        "meta_bstar": 0.0006336217,
        "meta_mean_motion_dot": 2.241e-05,
        "meta_mean_motion_ddot": 0,
        "tle_line1": "1 35297U 97051PM  25348.53860275  .00002241  00000+0  63362-3 0  9997",
        "tle_line2": "2 35297  86.3867  61.9926 0017628 135.2135 225.0494 14.45168041704521"
      },
      "geometry": {
        "type": "Point",
        "coordinates": [
          83.60554012479888,
          80.4627207781201
        ]
      }
    },
    {
      "type": "Feature",
      "properties": {
        "norad_id": 35299,
        "name": "IRIDIUM 33 DEB",
        "group": "iridium-33-debris",
        "lat": -31.53963345221233,
        "lon": 29.631280015483405,
        "alt_km": 785.3828721107338,
        "timestamp": "2025-12-15T15:53:20.233899+00:00",
        "meta_object_name": "IRIDIUM 33 DEB",
        "meta_object_id": "1997-051PP",
        "meta_epoch": "2025-12-14T14:03:44.999136",
        "meta_mean_motion": 14.4087244,
        "meta_eccentricity": 0.00589652,
        "meta_inclination": 86.2888,
        "meta_ra_of_asc_node": 32.3826,
        "meta_arg_of_pericenter": 96.5239,
        "meta_mean_anomaly": 54.1698,
        "meta_ephemeris_type": 0,
        "meta_classification_type": "U",
        "meta_norad_cat_id": 35299,
        "meta_element_set_no": 999,
        "meta_rev_at_epoch": 86357,
        "meta_bstar": 0.00074613708,
        "meta_mean_motion_dot": 2.461e-05,
        "meta_mean_motion_ddot": 0,
        "tle_line1": "1 35299U 97051PP  25348.58593749  .00002461  00000+0  74614-3 0  9999",
        "tle_line2": "2 35299  86.2888  32.3826 0058965  96.5239  54.1698 14.40872440863577"
      },
      "geometry": {
        "type": "Point",
        "coordinates": [
          29.631280015483405,
          -31.53963345221233
        ]
      }
    },
    {
      "type": "Feature",
      "properties": {
        "norad_id": 35480,
        "name": "IRIDIUM 33 DEB",
        "group": "iridium-33-debris",
        "lat": 16.94915414616656,
        "lon": -157.46613413481754,
        "alt_km": 722.9218066717867,
        "timestamp": "2025-12-15T15:53:20.233908+00:00",
        "meta_object_name": "IRIDIUM 33 DEB",
        "meta_object_id": "1997-051QA",
        "meta_epoch": "2025-12-09T19:59:43.135296",
        "meta_mean_motion": 14.49744632,
        "meta_eccentricity": 0.00159269,
        "meta_inclination": 86.357,
        "meta_ra_of_asc_node": 26.1722,
        "meta_arg_of_pericenter": 113.2937,
        "meta_mean_anomaly": 246.9945,
        "meta_ephemeris_type": 0,
        "meta_classification_type": "U",
        "meta_norad_cat_id": 35480,
        "meta_element_set_no": 999,
        "meta_rev_at_epoch": 86989,
        "meta_bstar": 0.0009193458,
        "meta_mean_motion_dot": 3.565e-05,
        "meta_mean_motion_ddot": 0,
        "tle_line1": "1 35480U 97051QA  25343.83313814  .00003565  00000+0  91935-3 0  9998",
        "tle_line2": "2 35480  86.3570  26.1722 0015926 113.2937 246.9945 14.49744632869893"
      },
      "geometry": {
        "type": "Point",
        "coordinates": [
          -157.46613413481754,
          16.94915414616656
        ]
      }
    },
    {
      "type": "Feature",
      "properties": {
        "norad_id": 35484,
        "name": "IRIDIUM 33 DEB",
        "group": "iridium-33-debris",
        "lat": 56.90906265619132,
        "lon": 165.7750053363522,
        "alt_km": 548.3630097207342,
        "timestamp": "2025-12-15T15:53:20.233917+00:00",
        "meta_object_name": "IRIDIUM 33 DEB",
        "meta_object_id": "1997-051QE",
        "meta_epoch": "2025-12-13T07:15:48.307680",
        "meta_mean_motion": 14.98714194,
        "meta_eccentricity": 0.00237352,
        "meta_inclination": 86.3615,
        "meta_ra_of_asc_node": 352.4822,
        "meta_arg_of_pericenter": 123.3819,
        "meta_mean_anomaly": 236.9688,
        "meta_ephemeris_type": 0,
        "meta_classification_type": "U",
        "meta_norad_cat_id": 35484,
        "meta_element_set_no": 999,
        "meta_rev_at_epoch": 62024,
        "meta_bstar": 0.0048114888,
        "meta_mean_motion_dot": 0.00058609,
        "meta_mean_motion_ddot": 0,
        "tle_line1": "1 35484U 97051QE  25347.30264245  .00058609  00000+0  48115-2 0  9991",
        "tle_line2": "2 35484  86.3615 352.4822 0023735 123.3819 236.9688 14.98714194620242"
      },
      "geometry": {
        "type": "Point",
        "coordinates": [
          165.7750053363522,
          56.90906265619132
        ]
      }
    },
    {
      "type": "Feature",
      "properties": {
        "norad_id": 35488,
        "name": "IRIDIUM 33 DEB",
        "group": "iridium-33-debris",
        "lat": 67.06922444121706,
        "lon": -51.7295770822824,
        "alt_km": 595.7954559773734,
        "timestamp": "2025-12-15T15:53:20.233926+00:00",
        "meta_object_name": "IRIDIUM 33 DEB",
        "meta_object_id": "1997-051QJ",
        "meta_epoch": "2025-12-14T07:12:10.479456",
        "meta_mean_motion": 14.83115421,
        "meta_eccentricity": 0.00296471,
        "meta_inclination": 86.3249,
        "meta_ra_of_asc_node": 300.1594,
        "meta_arg_of_pericenter": 37.8758,
        "meta_mean_anomaly": 322.4543,
        "meta_ephemeris_type": 0,
        "meta_classification_type": "U",
        "meta_norad_cat_id": 35488,
        "meta_element_set_no": 999,
        "meta_rev_at_epoch": 88289,
        "meta_bstar": 0.0017774187,
        "meta_mean_motion_dot": 0.00014633,
        "meta_mean_motion_ddot": 0,
        "tle_line1": "1 35488U 97051QJ  25348.30012129  .00014633  00000+0  17774-2 0  9994",
        "tle_line2": "2 35488  86.3249 300.1594 0029647  37.8758 322.4543 14.83115421882898"
      },
      "geometry": {
        "type": "Point",
        "coordinates": [
          -51.7295770822824,
          67.06922444121706
        ]
      }
    }
  ]
}